{
  "type": "FeatureCollection",
  "features": [
    {
      "type": "Feature",
      "properties": {
        "norad_id": 40069,
        "name": "METEOR-M 2",
        "group": "weather",
        "lat": 51.420907710940206,
        "lon": -40.627729735049996,
        "alt_km": 818.6765134165953,
        "timestamp": "2025-12-18T19:29:52.186983+00:00",
        "meta_object_name": "METEOR-M 2",
        "meta_object_id": "2014-037A",
        "meta_epoch": "2025-12-18T05:44:13.698816",
        "meta_mean_motion": 14.21387699,
        "meta_eccentricity": 0.00052011,
        "meta_inclination": 98.4897,
        "meta_ra_of_asc_node": 329.6129,
        "meta_arg_of_pericenter": 192.4544,
        "meta_mean_anomaly": 167.6507,
        "meta_ephemeris_type": 0,
        "meta_classification_type": "U",
        "meta_norad_cat_id": 40069,
        "meta_element_set_no": 999,
        "meta_rev_at_epoch": 59361,
        "meta_bstar": -6.5226197e-05,
        "meta_mean_motion_dot": -1.84e-06,
        "meta_mean_motion_ddot": 0,
        "tle_line1": "1 40069U 14037A   25352.23904744 -.00000184  00000+0 -65226-4 0  9993",
        "tle_line2": "2 40069  98.4897 329.6129 0005201 192.4544 167.6507 14.21387699593611"
      },
      "geometry": {
        "type": "Point",
        "coordinates": [
          -40.627729735049996,
          51.420907710940206
        ]
      }
    },
    {
      "type": "Feature",
      "properties": {
        "norad_id": 40267,
        "name": "HIMAWARI-8",
        "group": "weather",
        "lat": 0.0011646813014289494,
        "lon": 160.78852453445901,
        "alt_km": 35788.48364407216,
        "timestamp": "2025-12-18T19:29:52.186996+00:00",
        "meta_object_name": "HIMAWARI-8",
        "meta_object_id": "2014-060A",
        "meta_epoch": "2025-12-18T04:44:38.795136",
        "meta_mean_motion": 1.00271988,
        "meta_eccentricity": 8.576e-05,
        "meta_inclination": 0.0081,
        "meta_ra_of_asc_node": 89.0347,
        "meta_arg_of_pericenter": 203.2977,
        "meta_mean_anomaly": 6.5629,
        "meta_ephemeris_type": 0,
        "meta_classification_type": "U",
        "meta_norad_cat_id": 40267,
        "meta_element_set_no": 999,
        "meta_rev_at_epoch": 4094,
        "meta_bstar": 0,
        "meta_mean_motion_dot": -2.5e-06,
        "meta_mean_motion_ddot": 0,
        "tle_line1": "1 40267U 14060A   25352.19767124 -.00000250  00000+0  00000+0 0  9990",
        "tle_line2": "2 40267   0.0081  89.0347 0000857 203.2977   6.5629  1.00271988 40942"
      },
      "geometry": {
        "type": "Point",
        "coordinates": [
          160.78852453445901,
          0.0011646813014289494
        ]
      }
    },
    {
      "type": "Feature",
      "properties": {
        "norad_id": 40367,
        "name": "FENGYUN 2G",
        "group": "weather",
        "lat": 3.649015730509592,
        "lon": 119.34232628715164,
        "alt_km": 35799.57722968414,
        "timestamp": "2025-12-18T19:29:52.187008+00:00",
        "meta_object_name": "FENGYUN 2G",
        "meta_object_id": "2014-090A",
        "meta_epoch": "2025-12-17T18:56:05.319744",
        "meta_mean_motion": 1.00262461,
        "meta_eccentricity": 0.00028119,
        "meta_inclination": 5.1808,
        "meta_ra_of_asc_node": 75.0403,
        "meta_arg_of_pericenter": 205.1147,
        "meta_mean_anomaly": 189.902,
        "meta_ephemeris_type": 0,
        "meta_classification_type": "U",
        "meta_norad_cat_id": 40367,
        "meta_element_set_no": 999,
        "meta_rev_at_epoch": 4018,
        "meta_bstar": 0,
        "meta_mean_motion_dot": -2.79e-06,
        "meta_mean_motion_ddot": 0,
        "tle_line1": "1 40367U 14090A   25351.78895046 -.00000279  00000+0  00000+0 0  9994",
        "tle_line2": "2 40367   5.1808  75.0403 0002811 205.1147 189.9020  1.00262461 40189"
      },
      "geometry": {
        "type": "Point",
        "coordinates": [
          119.34232628715164,
          3.649015730509592
        ]
      }
    },
    {
      "type": "Feature",
      "properties": {
        "norad_id": 40732,
        "name": "METEOSAT-11 (MSG-4)",
        "group": "weather",
        "lat": -1.8472959332434766,
        "lon": 29.376146484524874,
        "alt_km": 35790.70512361733,
        "timestamp": "2025-12-18T19:29:52.187021+00:00",
        "meta_object_name": "METEOSAT-11 (MSG-4)",
        "meta_object_id": "2015-034A",
        "meta_epoch": "2025-12-18T01:21:11.445408",
        "meta_mean_motion": 1.00269153,
        "meta_eccentricity": 8.825e-05,
        "meta_inclination": 2.7492,
        "meta_ra_of_asc_node": 71.989,
        "meta_arg_of_pericenter": 133.6701,
        "meta_mean_anomaly": 270.7845,
        "meta_ephemeris_type": 0,
        "meta_classification_type": "U",
        "meta_norad_cat_id": 40732,
        "meta_element_set_no": 999,
        "meta_rev_at_epoch": 540,
        "meta_bstar": 0,
        "meta_mean_motion_dot": 8.4e-07,
        "meta_mean_motion_ddot": 0,
        "tle_line1": "1 40732U 15034A   25352.05638247  .00000084  00000+0  00000+0 0  9991",
        "tle_line2": "2 40732   2.7492  71.9890 0000882 133.6701 270.7845  1.00269153  5404"
      },
      "geometry": {
        "type": "Point",
        "coordinates": [
          29.376146484524874,
          -1.8472959332434766
        ]
      }
    },
    {
      "type": "Feature",
      "properties": {
        "norad_id": 41105,
        "name": "ELEKTRO-L 2",
        "group": "weather",
        "lat": -5.74335623617683,
        "lon": 5.81570280834008,
        "alt_km": 35785.15697691021,
        "timestamp": "2025-12-18T19:29:52.187033+00:00",
        "meta_object_name": "ELEKTRO-L 2",
        "meta_object_id": "2015-074A",
        "meta_epoch": "2025-12-18T01:14:27.090816",
        "meta_mean_motion": 1.00272597,
        "meta_eccentricity": 0.00035785,
        "meta_inclination": 6.2385,
        "meta_ra_of_asc_node": 72.7657,
        "meta_arg_of_pericenter": 208.6234,
        "meta_mean_anomaly": 169.659,
        "meta_ephemeris_type": 0,
        "meta_classification_type": "U",
        "meta_norad_cat_id": 41105,
        "meta_element_set_no": 999,
        "meta_rev_at_epoch": 3669,
        "meta_bstar": 0,
        "meta_mean_motion_dot": -9.7e-07,
        "meta_mean_motion_ddot": 0,
        "tle_line1": "1 41105U 15074A   25352.05170244 -.00000097  00000+0  00000+0 0  9993",
        "tle_line2": "2 41105   6.2385  72.7657 0003578 208.6234 169.6590  1.00272597 36692"
      },
      "geometry": {
        "type": "Point",
        "coordinates": [
          5.81570280834008,
          -5.74335623617683
        ]
      }
    },
    {
      "type": "Feature",
      "properties": {
        "norad_id": 41752,
        "name": "INSAT-3DR",
        "group": "weather",
        "lat": 0.03997585240516141,
        "lon": 94.10723417867887,
        "alt_km": 35845.97880055512,
        "timestamp": "2025-12-18T19:29:52.187045+00:00",
        "meta_object_name": "INSAT-3DR",
        "meta_object_id": "2016-054A",
        "meta_epoch": "2025-12-18T01:39:39.676608",
        "meta_mean_motion": 1.00271612,
        "meta_eccentricity": 0.00141408,
        "meta_inclination": 0.1051,
        "meta_ra_of_asc_node": 86.5996,
        "meta_arg_of_pericenter": 184.7803,
        "meta_mean_anomaly": 274.4622,
        "meta_ephemeris_type": 0,
        "meta_classification_type": "U",
        "meta_norad_cat_id": 41752,
        "meta_element_set_no": 999,
        "meta_rev_at_epoch": 3400,
        "meta_bstar": 0,
        "meta_mean_motion_dot": -5.2e-07,
        "meta_mean_motion_ddot": 0,
        "tle_line1": "1 41752U 16054A   25352.06920922 -.00000052  00000+0  00000+0 0  9998",
        "tle_line2": "2 41752   0.1051  86.5996 0014140 184.7803 274.4622  1.00271612 34006"
      },
      "geometry": {
        "type": "Point",
        "coordinates": [
          94.10723417867887,
          0.03997585240516141
        ]
      }
    },
    {
      "type": "Feature",
      "properties": {
        "norad_id": 41836,
        "name": "HIMAWARI-9",
        "group": "weather",
        "lat": -0.001921096114859947,
        "lon": 160.8664411318519,
        "alt_km": 35794.97577734864,
        "timestamp": "2025-12-18T19:29:52.187070+00:00",
        "meta_object_name": "HIMAWARI-9",
        "meta_object_id": "2016-064A",
        "meta_epoch": "2025-12-18T01:03:38.637216",
        "meta_mean_motion": 1.00269265,
        "meta_eccentricity": 0.00019393,
        "meta_inclination": 0.0207,
        "meta_ra_of_asc_node": 333.1202,
        "meta_arg_of_pericenter": 2.5389,
        "meta_mean_anomaly": 267.9145,
        "meta_ephemeris_type": 0,
        "meta_classification_type": "U",
        "meta_norad_cat_id": 41836,
        "meta_element_set_no": 999,
        "meta_rev_at_epoch": 3339,
        "meta_bstar": 0,
        "meta_mean_motion_dot": 0,
        "meta_mean_motion_ddot": 0,
        "tle_line1": "1 41836U 16064A   25352.04419719  .00000000  00000+0  00000+0 0  9999",
        "tle_line2": "2 41836   0.0207 333.1202 0001939   2.5389 267.9145  1.00269265 33399"
      },
      "geometry": {
        "type": "Point",
        "coordinates": [
          160.8664411318519,
          -0.001921096114859947
        ]
      }
    }
  ]
}